{
  "type": "FeatureCollection",
  "features": [{
    "type": "Feature",
    "properties": {
      "name": "Newfoundland and Labrador maritime study area",
      "purpose": "Analysis boundary for this research portfolio; includes coastal waters, Grand Banks and Labrador shelf. Not a provincial, EEZ or navigation boundary.",
      "version": "2026-09-05"
    },
    "geometry": {"type": "Polygon", "coordinates": [[
      [-59.5, 45.0], [-45.0, 45.0], [-45.0, 50.0],
      [-53.0, 61.5], [-61.5, 61.5], [-61.5, 52.0],
      [-59.5, 50.0], [-59.5, 45.0]
    ]]}
  }]
}
