{
  "type": "FeatureCollection",
  "name": "bonavista_shoreline_checks_v1",
  "reference": {
    "source": "Esri World Imagery / Vantor Vivid",
    "url": "https://services.arcgisonline.com/ArcGIS/rest/services/World_Imagery/MapServer",
    "reviewed_on": "2026-10-05",
    "source_date_at_image_centre": "2025-08-01",
    "image_sha256": "8a6ca184c311d5cd122a51de9e3a133978f85d3d390118c65c7da50b8dfdc261",
    "image_extent_wgs84": [-53.1345,48.645,-53.1025,48.665],
    "image_size": [1600,1000],
    "local_provenance": "data/reference/regional/bonavista/provenance.json",
    "rejected_candidate": {"image_pixel_xy":[950,825],"coordinates_wgs84":[-53.1155,48.6485],"osm_signed_distance_m":-5.7,"canvec_signed_distance_m":-3.3,"reason":"Initial hand-placed point lies at the quay/water edge, not clearly inside the basin. Excluded as ambiguous after overlay inspection; no polygon correction justified."},
    "method": "Visual inspection of downloaded image; pixel x/y converted using export extent, longitude first. Not surveyed points or vessel labels.",
    "scope": "Bonavista harbour and immediate bays only",
    "limitation": "Centre citation does not date every pixel. Sparse development checks do not establish current tidal waterline or accuracy between points. Basemap imagery not redistributed."
  },
  "features": [
    {"type":"Feature","properties":{"id":"bonavista_basin","expected":"water","image_pixel_xy":[980,775]},"geometry":{"type":"Point","coordinates":[-53.1149,48.6495]}},
    {"type":"Feature","properties":{"id":"bonavista_entrance","expected":"water","image_pixel_xy":[825,750]},"geometry":{"type":"Point","coordinates":[-53.118,48.65]}},
    {"type":"Feature","properties":{"id":"bonavista_north_bay","expected":"water","image_pixel_xy":[750,350]},"geometry":{"type":"Point","coordinates":[-53.1195,48.658]}},
    {"type":"Feature","properties":{"id":"bonavista_town_land","expected":"land","image_pixel_xy":[1220,600]},"geometry":{"type":"Point","coordinates":[-53.1101,48.653]}},
    {"type":"Feature","properties":{"id":"bonavista_south_land","expected":"land","image_pixel_xy":[1000,930]},"geometry":{"type":"Point","coordinates":[-53.1145,48.6464]}}
  ]
}
